start=new Date('2021-08-29T00:00:00.000Z').valueOf();
sats=[{"MEAN_MOTION_DOT":"0.00000782","ELEMENT_SET_NO":"999","FILE":"3104555","PERIOD":"95.591","RCS_SIZE":"LARGE","TLE_LINE2":"2 48557  53.0581 356.1582 0001375 128.9612 231.1499 15.06411605 15923","MEAN_ANOMALY":"231.1499","NORAD_CAT_ID":"48557","ARG_OF_PERICENTER":"128.9612","LAUNCH_DATE":"2021-05-15","APOAPSIS":"548.130","EPHEMERIS_TYPE":"0","TIME_SYSTEM":"UTC","DECAY_DATE":null,"MEAN_MOTION":"15.06411605","EPOCH":"2021-08-28T19:29:55.565952","ECCENTRICITY":"0.00013750","MEAN_MOTION_DDOT":"0.0000000000000","BSTAR":"0.00007134300000","CLASSIFICATION_TYPE":"U","GP_ID":"183640022","REV_AT_EPOCH":"1592","OBJECT_NAME":"STARLINK-2155","CENTER_NAME":"EARTH","COUNTRY_CODE":"US","SEMIMAJOR_AXIS":"6925.313","RA_OF_ASC_NODE":"356.1582","REF_FRAME":"TEME","MEAN_ELEMENT_THEORY":"SGP4","OBJECT_ID":"2021-041E","INCLINATION":"53.0581","PERIAPSIS":"546.226","TLE_LINE1":"1 48557U 21041E   21240.81244868  .00000782  00000-0  71343-4 0  9996","SITE":"AFETR","OBJECT_TYPE":"PAYLOAD"},{"TLE_LINE2":"2 48558  53.0577 356.1735 0001321 143.1370 216.9710 15.06405535 15067","MEAN_ANOMALY":"216.9710","ELEMENT_SET_NO":"999","MEAN_MOTION_DOT":"0.00000596","PERIOD":"95.592","RCS_SIZE":"LARGE","FILE":"3104555","EPOCH":"2021-08-28T19:24:38.644704","MEAN_MOTION":"15.06405535","DECAY_DATE":null,"EPHEMERIS_TYPE":"0","APOAPSIS":"548.111","TIME_SYSTEM":"UTC","BSTAR":"0.00005888600000","ECCENTRICITY":"0.00013210","MEAN_MOTION_DDOT":"0.0000000000000","NORAD_CAT_ID":"48558","LAUNCH_DATE":"2021-05-15","ARG_OF_PERICENTER":"143.1370","SEMIMAJOR_AXIS":"6925.332","COUNTRY_CODE":"US","RA_OF_ASC_NODE":"356.1735","GP_ID":"183639840","CLASSIFICATION_TYPE":"U","OBJECT_NAME":"STARLINK-2166","REV_AT_EPOCH":"1506","CENTER_NAME":"EARTH","TLE_LINE1":"1 48558U 21041F   21240.80878061  .00000596  00000-0  58886-4 0  9994","SITE":"AFETR","PERIAPSIS":"546.282","INCLINATION":"53.0577","OBJECT_TYPE":"PAYLOAD","REF_FRAME":"TEME","OBJECT_ID":"2021-041F","MEAN_ELEMENT_THEORY":"SGP4"},{"MEAN_MOTION_DOT":"0.00002044","ELEMENT_SET_NO":"999","FILE":"3104555","PERIOD":"95.592","RCS_SIZE":"LARGE","TLE_LINE2":"2 48559  53.0416 356.9637 0001419 139.1343 220.9753 15.06400328 15890","MEAN_ANOMALY":"220.9753","NORAD_CAT_ID":"48559","ARG_OF_PERICENTER":"139.1343","LAUNCH_DATE":"2021-05-15","APOAPSIS":"548.195","TIME_SYSTEM":"UTC","EPHEMERIS_TYPE":"0","DECAY_DATE":null,"MEAN_MOTION":"15.06400328","EPOCH":"2021-08-28T15:29:43.625184","ECCENTRICITY":"0.00014190","MEAN_MOTION_DDOT":"0.0000000000000","BSTAR":"0.00015606000000","GP_ID":"183639593","CLASSIFICATION_TYPE":"U","REV_AT_EPOCH":"1589","CENTER_NAME":"EARTH","OBJECT_NAME":"STARLINK-2167","COUNTRY_CODE":"US","SEMIMAJOR_AXIS":"6925.348","RA_OF_ASC_NODE":"356.9637","REF_FRAME":"TEME","MEAN_ELEMENT_THEORY":"SGP4","OBJECT_ID":"2021-041G","INCLINATION":"53.0416","PERIAPSIS":"546.230","TLE_LINE1":"1 48559U 21041G   21240.64564381  .00002044  00000-0  15606-3 0  9996","SITE":"AFETR","OBJECT_TYPE":"PAYLOAD"},{"REF_FRAME":"TEME","MEAN_ELEMENT_THEORY":"SGP4","OBJECT_ID":"2021-041H","INCLINATION":"53.0422","PERIAPSIS":"546.219","SITE":"AFETR","TLE_LINE1":"1 48560U 21041H   21240.64659775  .00000434  00000-0  48028-4 0  9996","OBJECT_TYPE":"PAYLOAD","GP_ID":"183640112","CLASSIFICATION_TYPE":"U","REV_AT_EPOCH":"1680","OBJECT_NAME":"STARLINK-2173","CENTER_NAME":"EARTH","SEMIMAJOR_AXIS":"6925.354","COUNTRY_CODE":"US","RA_OF_ASC_NODE":"356.9591","NORAD_CAT_ID":"48560","ARG_OF_PERICENTER":"135.3259","LAUNCH_DATE":"2021-05-15","APOAPSIS":"548.219","TIME_SYSTEM":"UTC","EPHEMERIS_TYPE":"0","DECAY_DATE":null,"MEAN_MOTION":"15.06398341","EPOCH":"2021-08-28T15:31:06.045600","MEAN_MOTION_DDOT":"0.0000000000000","ECCENTRICITY":"0.00014440","BSTAR":"0.00004802800000","MEAN_MOTION_DOT":"0.00000434","ELEMENT_SET_NO":"999","FILE":"3104555","PERIOD":"95.592","RCS_SIZE":"LARGE","TLE_LINE2":"2 48560  53.0422 356.9591 0001444 135.3259 224.7846 15.06398341 16808","MEAN_ANOMALY":"224.7846"},{"OBJECT_TYPE":"PAYLOAD","INCLINATION":"53.0557","PERIAPSIS":"438.139","TLE_LINE1":"1 48561U 21041J   21240.91667824 -.00039583  00000-0 -90333-3 0  9995","SITE":"AFETR","MEAN_ELEMENT_THEORY":"SGP4","OBJECT_ID":"2021-041J","REF_FRAME":"TEME","RA_OF_ASC_NODE":"340.8026","COUNTRY_CODE":"US","SEMIMAJOR_AXIS":"6817.742","REV_AT_EPOCH":"364","OBJECT_NAME":"STARLINK-2186","CENTER_NAME":"EARTH","GP_ID":"183639682","CLASSIFICATION_TYPE":"U","MEAN_MOTION_DDOT":"0.0000000000000","ECCENTRICITY":"0.00021530","BSTAR":"-0.00090333000000","APOAPSIS":"441.074","TIME_SYSTEM":"UTC","EPHEMERIS_TYPE":"0","DECAY_DATE":null,"MEAN_MOTION":"15.42204488","EPOCH":"2021-08-28T22:00:00.999936","ARG_OF_PERICENTER":"26.8505","LAUNCH_DATE":"2021-05-15","NORAD_CAT_ID":"48561","MEAN_ANOMALY":"216.1699","TLE_LINE2":"2 48561  53.0557 340.8026 0002153  26.8505 216.1699 15.42204488  3646","FILE":"3104555","PERIOD":"93.373","RCS_SIZE":"LARGE","MEAN_MOTION_DOT":"-0.00039583","ELEMENT_SET_NO":"999"},{"MEAN_ANOMALY":"218.4862","TLE_LINE2":"2 48562  53.0652 355.9453 0001347 141.6223 218.4862 15.06413088 15931","FILE":"3104555","PERIOD":"95.591","RCS_SIZE":"LARGE","MEAN_MOTION_DOT":"0.00002074","ELEMENT_SET_NO":"999","ECCENTRICITY":"0.00013470","MEAN_MOTION_DDOT":"0.0000000000000","BSTAR":"0.00015804000000","EPHEMERIS_TYPE":"0","APOAPSIS":"548.106","TIME_SYSTEM":"UTC","DECAY_DATE":null,"MEAN_MOTION":"15.06413088","EPOCH":"2021-08-28T20:28:18.903648","ARG_OF_PERICENTER":"141.6223","LAUNCH_DATE":"2021-05-15","NORAD_CAT_ID":"48562","RA_OF_ASC_NODE":"355.9453","COUNTRY_CODE":"US","SEMIMAJOR_AXIS":"6925.308","REV_AT_EPOCH":"1593","OBJECT_NAME":"STARLINK-2187","CENTER_NAME":"EARTH","GP_ID":"183639500","CLASSIFICATION_TYPE":"U","OBJECT_TYPE":"PAYLOAD","INCLINATION":"53.0652","PERIAPSIS":"546.241","TLE_LINE1":"1 48562U 21041K   21240.85299657  .00002074  00000-0  15804-3 0  9997","SITE":"AFETR","MEAN_ELEMENT_THEORY":"SGP4","OBJECT_ID":"2021-041K","REF_FRAME":"TEME"},{"TLE_LINE2":"2 48563  53.0583 356.4891 0001224 142.9900 217.1173 15.06409486 15913","MEAN_ANOMALY":"217.1173","ELEMENT_SET_NO":"999","MEAN_MOTION_DOT":"0.00003178","PERIOD":"95.592","RCS_SIZE":"LARGE","FILE":"3104555","MEAN_MOTION":"15.06409486","EPOCH":"2021-08-28T17:43:46.612416","APOAPSIS":"548.032","TIME_SYSTEM":"UTC","EPHEMERIS_TYPE":"0","DECAY_DATE":null,"BSTAR":"0.00023209000000","ECCENTRICITY":"0.00012240","MEAN_MOTION_DDOT":"0.0000000000000","NORAD_CAT_ID":"48563","LAUNCH_DATE":"2021-05-15","ARG_OF_PERICENTER":"142.9900","COUNTRY_CODE":"US","SEMIMAJOR_AXIS":"6925.319","RA_OF_ASC_NODE":"356.4891","GP_ID":"183639934","CLASSIFICATION_TYPE":"U","REV_AT_EPOCH":"1591","OBJECT_NAME":"STARLINK-2188","CENTER_NAME":"EARTH","PERIAPSIS":"546.337","SITE":"AFETR","TLE_LINE1":"1 48563U 21041L   21240.73873394  .00003178  00000-0  23209-3 0  9995","INCLINATION":"53.0583","OBJECT_TYPE":"PAYLOAD","REF_FRAME":"TEME","OBJECT_ID":"2021-041L","MEAN_ELEMENT_THEORY":"SGP4"},{"OBJECT_ID":"2021-041M","MEAN_ELEMENT_THEORY":"SGP4","REF_FRAME":"TEME","OBJECT_TYPE":"PAYLOAD","TLE_LINE1":"1 48564U 21041M   21240.59867763  .00002561  00000-0  19069-3 0  9997","SITE":"AFETR","PERIAPSIS":"546.291","INCLINATION":"53.0575","REV_AT_EPOCH":"1589","OBJECT_NAME":"STARLINK-2190","CENTER_NAME":"EARTH","GP_ID":"183639772","CLASSIFICATION_TYPE":"U","RA_OF_ASC_NODE":"357.1142","COUNTRY_CODE":"US","SEMIMAJOR_AXIS":"6925.315","LAUNCH_DATE":"2021-05-15","ARG_OF_PERICENTER":"135.8464","NORAD_CAT_ID":"48564","BSTAR":"0.00019069000000","ECCENTRICITY":"0.00012840","MEAN_MOTION_DDOT":"0.0000000000000","EPOCH":"2021-08-28T14:22:05.747232","MEAN_MOTION":"15.06410822","DECAY_DATE":null,"APOAPSIS":"548.070","EPHEMERIS_TYPE":"0","TIME_SYSTEM":"UTC","PERIOD":"95.591","RCS_SIZE":"LARGE","FILE":"3104555","ELEMENT_SET_NO":"999","MEAN_MOTION_DOT":"0.00002561","MEAN_ANOMALY":"224.2627","TLE_LINE2":"2 48564  53.0575 357.1142 0001284 135.8464 224.2627 15.06410822 15890"},{"ARG_OF_PERICENTER":"143.1652","LAUNCH_DATE":"2021-05-15","NORAD_CAT_ID":"48565","ECCENTRICITY":"0.00013940","MEAN_MOTION_DDOT":"0.0000000000000","BSTAR":"0.00022796000000","DECAY_DATE":null,"APOAPSIS":"548.145","TIME_SYSTEM":"UTC","EPHEMERIS_TYPE":"0","EPOCH":"2021-08-28T19:03:23.779872","MEAN_MOTION":"15.06411122","FILE":"3104555","PERIOD":"95.591","RCS_SIZE":"LARGE","MEAN_MOTION_DOT":"0.00003117","ELEMENT_SET_NO":"999","MEAN_ANOMALY":"216.9433","TLE_LINE2":"2 48565  53.0591 356.2308 0001394 143.1652 216.9433 15.06411122 15927","MEAN_ELEMENT_THEORY":"SGP4","OBJECT_ID":"2021-041N","REF_FRAME":"TEME","OBJECT_TYPE":"PAYLOAD","INCLINATION":"53.0591","TLE_LINE1":"1 48565U 21041N   21240.79402523  .00003117  00000-0  22796-3 0  9998","SITE":"AFETR","PERIAPSIS":"546.214","OBJECT_NAME":"STARLINK-2191","REV_AT_EPOCH":"1592","CENTER_NAME":"EARTH","GP_ID":"183640023","CLASSIFICATION_TYPE":"U","RA_OF_ASC_NODE":"356.2308","SEMIMAJOR_AXIS":"6925.314","COUNTRY_CODE":"US"},{"EPOCH":"2021-08-28T18:02:20.235840","MEAN_MOTION":"15.06404049","DECAY_DATE":null,"APOAPSIS":"548.081","TIME_SYSTEM":"UTC","EPHEMERIS_TYPE":"0","BSTAR":"0.00007345100000","ECCENTRICITY":"0.00012700","MEAN_MOTION_DDOT":"0.0000000000000","NORAD_CAT_ID":"48566","LAUNCH_DATE":"2021-05-15","ARG_OF_PERICENTER":"129.6734","TLE_LINE2":"2 48566  53.0569   6.4276 0001270 129.6734 230.4368 15.06404049 15775","MEAN_ANOMALY":"230.4368","ELEMENT_SET_NO":"999","MEAN_MOTION_DOT":"0.00000813","RCS_SIZE":"LARGE","PERIOD":"95.592","FILE":"3104555","TLE_LINE1":"1 48566U 21041P   21240.75162310  .00000813  00000-0  73451-4 0  9997","SITE":"AFETR","PERIAPSIS":"546.322","INCLINATION":"53.0569","OBJECT_TYPE":"PAYLOAD","REF_FRAME":"TEME","OBJECT_ID":"2021-041P","MEAN_ELEMENT_THEORY":"SGP4","COUNTRY_CODE":"US","SEMIMAJOR_AXIS":"6925.336","RA_OF_ASC_NODE":"6.4276","CLASSIFICATION_TYPE":"U","GP_ID":"183639841","OBJECT_NAME":"STARLINK-2214","REV_AT_EPOCH":"1577","CENTER_NAME":"EARTH"}];
